FENGYUN 1C DEB          
1 29754U 99025AU  17345.73912911  .00000466  00000-0  28234-3 0  9993
2 29754  98.9468  64.4463 0039148 235.2798 251.0697 14.10940793560729
